0 FENGYUN 1C DEB
1 30189U 99025UW  13282.79797323  .00018770  00000-0  12556-2 0   882
2 30189 099.0459 219.9518 0199839 234.2732 191.6284 14.92089671361116
0 FENGYUN 1C DEB
1 30189U 99025UW  13285.42691535  .00015785  00000-0  10549-2 0   909
2 30189 099.0455 222.9708 0199790 225.8484 273.4707 14.92173338361509
0 FENGYUN 1C DEB
1 30189U 99025UW  13286.81922329  .00016898  00000-0  11273-2 0   913
2 30189 099.0450 224.5692 0199818 221.3749 192.8293 14.92210878361718
0 FENGYUN 1C DEB
1 30189U 99025UW  13287.82586284  .00023752  00000-0  15791-2 0   928
2 30189 099.0450 225.7252 0199787 218.1160 200.5674 14.92248637361869
0 FENGYUN 1C DEB
1 30189U 99025UW  13288.83211427  .00023650  00000-0  15705-2 0   937
2 30189 099.0454 226.8801 0199706 214.8431 206.4115 14.92299933362018
0 FENGYUN 1C DEB
1 30189U 99025UW  13289.83871973  .00026971  00000-0  17879-2 0   940
2 30189 099.0458 228.0358 0199651 211.5667 214.3123 14.92336975362168
0 FENGYUN 1C DEB
1 30189U 99025UW  13290.77637095  .00026703  00000-0  17688-2 0   952
2 30189 099.0464 229.1126 0199581 208.5263 211.8684 14.92372909362307
0 FENGYUN 1C DEB
1 30189U 99025UW  13291.39195703  .00021816  00000-0  14463-2 0   965
2 30189 099.0469 229.8194 0199547 206.5234 279.1977 14.92395455362394
0 FENGYUN 1C DEB
1 30189U 99025UW  13292.39633409  .00020244  00000-0  13414-2 0   976
2 30189 099.0475 230.9727 0199550 203.2669 275.4547 14.92430523362541
0 FENGYUN 1C DEB
1 30189U 99025UW  13293.40366491  .00021788  00000-0  14422-2 0   988
2 30189 099.0478 232.1301 0199405 200.0123 287.7002 14.92467522362692
0 FENGYUN 1C DEB
1 30189U 99025UW  13294.79780722  .00025669  00000-0  16955-2 0   994
2 30189 099.0480 233.7323 0199283 195.5352 218.4191 14.92517066362905
0 FENGYUN 1C DEB
1 30189U 99025UW  13295.80469462  .00023119  00000-0  15268-2 0  1009
2 30189 099.0481 234.8894 0199241 192.3279 228.5476 14.92552873363058
